{
    "links": {
        "self": "http://www.neowsapp.com/rest/v1/neo/3766996?api_key=iIulBulltgU6a56xZRHN4H3l9WmuAYTsLGpBGhQ2"
    },
    "id": "3766996",
    "neo_reference_id": "3766996",
    "name": "(2017 BC6)",
    "designation": "2017 BC6",
    "nasa_jpl_url": "http://ssd.jpl.nasa.gov/sbdb.cgi?sstr=3766996",
    "absolute_magnitude_h": 26.7,
    "estimated_diameter": {
        "kilometers": {
            "estimated_diameter_min": 0.0121494041,
            "estimated_diameter_max": 0.0271668934
        },
        "meters": {
            "estimated_diameter_min": 12.14940408,
            "estimated_diameter_max": 27.1668934089
        },
        "miles": {
            "estimated_diameter_min": 0.0075492874,
            "estimated_diameter_max": 0.0168807197
        },
        "feet": {
            "estimated_diameter_min": 39.8602508817,
            "estimated_diameter_max": 89.1302305717
        }
    },
    "is_potentially_hazardous_asteroid": false,
    "close_approach_data": [
        {
            "close_approach_date": "2017-01-19",
            "close_approach_date_full": "2017-Jan-19 22:19",
            "epoch_date_close_approach": 1484864340000,
            "relative_velocity": {
                "kilometers_per_second": "12.1867078619",
                "kilometers_per_hour": "43872.1483029282",
                "miles_per_hour": "27260.4468163389"
            },
            "miss_distance": {
                "astronomical": "0.0198049434",
                "lunar": "7.7041229826",
                "kilometers": "2962777.348110558",
                "miles": "1840984.4765313804"
            },
            "orbiting_body": "Earth"
        }
    ],
    "orbital_data": {
        "orbit_id": "3",
        "orbit_determination_date": "2017-04-06 08:20:51",
        "first_observation_date": "2017-01-26",
        "last_observation_date": "2017-01-31",
        "data_arc_in_days": 5,
        "observations_used": 24,
        "orbit_uncertainty": "8",
        "minimum_orbit_intersection": ".0175459",
        "jupiter_tisserand_invariant": "3.646",
        "epoch_osculation": "2457780.5",
        "eccentricity": ".5604462400694519",
        "semi_major_axis": "1.979635344071994",
        "inclination": "4.886269957226123",
        "ascending_node_longitude": "310.2645741902936",
        "orbital_period": "1017.363671104317",
        "perihelion_distance": ".8701561587782493",
        "perihelion_argument": "120.1998592691019",
        "aphelion_distance": "3.089114529365738",
        "perihelion_time": "2457738.217298719035",
        "mean_anomaly": "14.96197760297912",
        "mean_motion": ".3538557648802529",
        "equinox": "J2000",
        "orbit_class": {
            "orbit_class_type": "APO",
            "orbit_class_description": "Near-Earth asteroid orbits which cross the Earth’s orbit similar to that of 1862 Apollo",
            "orbit_class_range": "a (semi-major axis) > 1.0 AU; q (perihelion) < 1.017 AU"
        }
    },
    "is_sentry_object": false
}